NORAD_CAT_ID,OBJECT_NAME,OBJECT_TYPE,EPOCH,MEAN_MOTION,ECCENTRICITY,INCLINATION,RA_OF_ASC_NODE,ARG_OF_PERICENTER,MEAN_ANOMALY,BSTAR,MEAN_MOTION_DOT,MEAN_MOTION_DDOT,TLE_LINE0,TLE_LINE1,TLE_LINE2,SEMIMAJOR_AXIS,PERIOD,APOGEE,PERIGEE,DECAYED
49173.0,STARLINK-3045,PAYLOAD,2022-02-24 14:00:01,15.20005731,0.0003307,69.9999,30.785,276.0403,170.0592,-0.0329589999999999,-0.00660059,0.0,0 STARLINK-3045,1 49173U 21082AV  22055.58334491 -.00660059  00000-0 -32959-1 0  9995,2 49173  69.9999  30.7850 0003307 276.0403 170.0592 15.20005731  3635,6883.96,94.736,508.102,503.549,0.0
49173.0,STARLINK-3045,PAYLOAD,2022-02-24 22:00:00,15.19537239,0.0003429,70.0002,29.9174,285.7258,183.5659,-0.033283,-0.00657701,0.0,0 STARLINK-3045,1 49173U 21082AV  22055.91667824 -.00657701  00000-0 -33283-1 0  9992,2 49173  70.0002  29.9174 0003429 285.7258 183.5659 15.19537239  3625,6885.375,94.766,509.601,504.879,0.0
49173.0,STARLINK-3045,PAYLOAD,2022-02-25 14:00:01,15.1860326,0.00032,69.9998,28.1839,277.9298,236.0644,-0.034317,-0.00659793,0.0,0 STARLINK-3045,1 49173U 21082AV  22056.58334491 -.00659793  00000-0 -34317-1 0  9999,2 49173  69.9998  28.1839 0003200 277.9298 236.0644 15.18603260 25820,6888.198,94.824,512.2669999999998,507.859,0.0
49173.0,STARLINK-3045,PAYLOAD,2022-02-25 22:00:00,15.18135395,0.0003321,70.0002,27.3182,285.7556,249.7486,-0.034704,-0.00665492,0.0,0 STARLINK-3045,1 49173U 21082AV  22056.91667824 -.00665492  00000-0 -34704-1 0  9998,2 49173  70.0002  27.3182 0003321 285.7556 249.7486 15.18135395  3649,6889.613,94.853,513.766,509.19,0.0
49173.0,STARLINK-3045,PAYLOAD,2022-02-26 14:00:01,15.17200946,0.0003145,69.9999,25.5884,277.3915,299.4516,-0.035754,-0.00667288,0.0,0 STARLINK-3045,1 49173U 21082AV  22057.58334491 -.00667288  00000-0 -35754-1 0  9994,2 49173  69.9999  25.5884 0003145 277.3915 299.4516 15.17200946  3640,6892.441999999999,94.912,516.474,512.139,0.0
49173.0,STARLINK-3045,PAYLOAD,2022-02-26 22:00:00,15.16733035,0.0003308,70.0002,24.7246,285.0821,311.5892,-0.036126,-0.00665389,0.0,0 STARLINK-3045,1 49173U 21082AV  22057.91667824 -.00665389  00000-0 -36126-1 0  9994,2 49173  70.0002  24.7246 0003308 285.0821 311.5892 15.16733035 26023,6893.859,94.941,518.005,513.444,0.0
49173.0,STARLINK-3045,PAYLOAD,2022-02-27 14:00:01,15.15798564,0.0003204,69.9999,22.9986,278.6437,356.0028,-0.037243,-0.00667727,0.0,0 STARLINK-3045,1 49173U 21082AV  22058.58334491 -.00667727  00000-0 -37243-1 0  9998,2 49173  69.9999  22.9986 0003204 278.6437 356.0028 15.15798564  3647,6896.691999999999,94.999,520.7669999999998,516.3480000000002,0.0
49173.0,STARLINK-3045,PAYLOAD,2022-02-27 22:00:00,15.15330317,0.0003335,70.0002,22.1366,283.2167,9.576,-0.037569,-0.00664863,0.0,0 STARLINK-3045,1 49173U 21082AV  22058.91667824 -.00664863  00000-0 -37569-1 0  9993,2 49173  70.0002  22.1366 0003335 283.2167   9.5760 15.15330317  3647,6898.113,95.029,522.278,517.677,0.0
49173.0,STARLINK-3045,PAYLOAD,2022-02-28 06:00:00,15.14862144,0.0003368,70.0001,21.2752,285.046,25.333,-0.038061,-0.00664695,0.0,0 STARLINK-3045,1 49173U 21082AV  22059.25001157 -.00664695  00000-0 -38061-1 0  9993,2 49173  70.0001  21.2752 0003368 285.0460  25.3330 15.14862144 26233,6899.534000000002,95.058,523.7230000000002,519.075,0.0
49173.0,STARLINK-3045,PAYLOAD,2022-02-28 14:00:01,15.14395947,0.0003287,69.9999,20.4144,278.2335,49.1706,-0.038757,-0.00667763,0.0,0 STARLINK-3045,1 49173U 21082AV  22059.58334491 -.00667763  00000-0 -38757-1 0  9990,2 49173  69.9999  20.4144 0003287 278.2335  49.1706 15.14395947  3639,6900.95,95.087,525.0830000000002,520.547,0.0
49173.0,STARLINK-3045,PAYLOAD,2022-02-28 22:00:00,15.13927462,0.000353,70.0002,19.5543,287.016,56.8527,-0.03906,-0.00664394,0.0,0 STARLINK-3045,1 49173U 21082AV  22059.91667824 -.00664394  00000-0 -39060-1 0  9991,2 49173  70.0002  19.5543 0003530 287.0160  56.8527 15.13927462  3621,6902.374,95.117,526.675,521.802,0.0
49173.0,STARLINK-3045,PAYLOAD,2022-03-01 14:00:01,15.12993129,0.0003326,69.9999,17.8357,277.5243,97.5918,-0.040283,-0.00667212,0.0,0 STARLINK-3045,1 49173U 21082AV  22060.58334491 -.00667212  00000-0 -40283-1 0  9998,2 49173  69.9999  17.8357 0003326 277.5243  97.5918 15.12993129 26438,6905.215,95.176,529.377,524.783,0.0
49173.0,STARLINK-3045,PAYLOAD,2022-03-01 22:00:01,15.12524714,0.0003489,70.0002,16.9774,284.8237,105.138,-0.040622,-0.00664269,0.0,0 STARLINK-3045,1 49173U 21082AV  22060.91668981 -.00664269  00000-0 -40622-1 0  9995,2 49173  70.0002  16.9774 0003489 284.8237 105.1380 15.12524714  3639,6906.641,95.205,530.915,526.096,0.0
49173.0,STARLINK-3045,PAYLOAD,2022-03-02 14:00:01,15.11590356,0.000335,70.0,15.2626,280.4237,137.3585,-0.041847,-0.00666518,0.0,0 STARLINK-3045,1 49173U 21082AV  22061.58334491 -.00666518  00000-0 -41847-1 0  9994,2 49173  70.0000  15.2626 0003350 280.4237 137.3585 15.11590356  3609,6909.486,95.264,533.6659999999998,529.0369999999998,0.0
49173.0,STARLINK-3045,PAYLOAD,2022-03-02 22:00:00,15.11122112,0.000357,70.0002,14.4062,288.974,141.909,-0.042246,-0.0066434,0.0,0 STARLINK-3045,1 49173U 21082AV  22061.91667824 -.00664340  00000-0 -42246-1 0  9995,2 49173  70.0002  14.4062 0003570 288.9740 141.9090 15.11122112 26633,6910.9140000000025,95.293,535.246,530.311,0.0
49173.0,STARLINK-3045,PAYLOAD,2022-03-03 14:00:01,15.10187526,0.0003315,70.0,12.6952,280.9414,174.4612,-0.043446,-0.00665632,0.0,0 STARLINK-3045,1 49173U 21082AV  22062.58334491 -.00665632  00000-0 -43446-1 0  9998,2 49173  70.0000  12.6952 0003315 280.9414 174.4612 15.10187526  3631,6913.765,95.352,537.922,533.3380000000002,0.0
49173.0,STARLINK-3045,PAYLOAD,2022-03-03 22:00:00,15.09719729,0.0003522,70.0003,11.8406,289.7442,177.0774,-0.04394,-0.00664655,0.0,0 STARLINK-3045,1 49173U 21082AV  22062.91667824 -.00664655  00000-0 -43940-1 0  9997,2 49173  70.0003  11.8406 0003522 289.7442 177.0774 15.09719729  3628,6915.193,95.382,539.493,534.622,0.0
49173.0,STARLINK-3045,PAYLOAD,2022-03-04 06:00:02,15.09250621,0.0003326,70.0002,10.9865,284.4344,193.3088,-0.044323,-0.00661997,0.0,0 STARLINK-3045,1 49173U 21082AV  22063.25002315 -.00661997  00000-0 -44323-1 0  9995,2 49173  70.0002  10.9865 0003326 284.4344 193.3088 15.09250621 26839,6916.626,95.412,540.7909999999998,536.19,0.0
49173.0,STARLINK-3045,PAYLOAD,2022-03-04 14:00:01,15.08784831,0.0003273999999999,70.0,10.1333,281.8701,206.17,-0.045105,-0.00664914,0.0,0 STARLINK-3045,1 49173U 21082AV  22063.58335648 -.00664914  00000-0 -45105-1 0  9990,2 49173  70.0000  10.1333 0003274 281.8701 206.1700 15.08784831  3629,6918.049,95.441,542.179,537.649,0.0
49173.0,STARLINK-3045,PAYLOAD,2022-03-04 22:00:00,15.08317433,0.0003422,70.0003,9.2805,288.9514,208.7629,-0.04569,-0.00664982,0.0,0 STARLINK-3045,1 49173U 21082AV  22063.91667824 -.00664982  00000-0 -45690-1 0  9995,2 49173  70.0003   9.2805 0003422 288.9514 208.7629 15.08317433  3628,6919.478,95.471,543.711,538.975,0.0
49173.0,STARLINK-3045,PAYLOAD,2022-03-05 06:00:00,15.07847054,0.0003276,70.0002,8.4284,284.4509,222.4406,-0.045919,-0.00660086,0.0,0 STARLINK-3045,1 49173U 21082AV  22064.25001157 -.00660086  00000-0 -45919-1 0  9999,2 49173  70.0002   8.4284 0003276 284.4509 222.4406 15.07847054  3623,6920.917,95.5,545.049,540.515,0.0
49173.0,STARLINK-3045,PAYLOAD,2022-03-05 14:00:01,15.0738214,0.0003187,70.0,7.5769,280.46,235.0462,-0.046821,-0.00664286,0.0,0 STARLINK-3045,1 49173U 21082AV  22064.58334491 -.00664286  00000-0 -46821-1 0  9994,2 49173  70.0000   7.5769 0003187 280.4600 235.0462 15.07382140 27031,6922.34,95.53,546.411,541.999,0.0
49173.0,STARLINK-3045,PAYLOAD,2022-03-05 22:00:01,15.06914987,0.0003416,70.0003,6.726,290.2101,233.4139,-0.04747,-0.00664974,0.0,0 STARLINK-3045,1 49173U 21082AV  22064.91668981 -.00664974  00000-0 -47470-1 0  9990,2 49173  70.0003   6.7260 0003416 290.2101 233.4139 15.06914987  3644,6923.771,95.559,548.001,543.27,0.0
49173.0,STARLINK-3045,PAYLOAD,2022-03-06 06:00:00,15.06443771,0.0003323,70.0002,5.8757,287.9502,243.1067,-0.047593,-0.00658638,0.0,0 STARLINK-3045,1 49173U 21082AV  22065.25001157 -.00658638  00000-0 -47593-1 0  9990,2 49173  70.0002   5.8757 0003323 287.9502 243.1067 15.06443771  3623,6925.214,95.589,549.381,544.778,0.0
49173.0,STARLINK-3045,PAYLOAD,2022-03-06 22:00:00,15.05512553,0.0003361,70.0003,4.1771,288.9819,255.3806,-0.049302,-0.00664914,0.0,0 STARLINK-3045,1 49173U 21082AV  22065.91667824 -.00664914  00000-0 -49302-1 0  9996,2 49173  70.0003   4.1771 0003361 288.9819 255.3806 15.05512553 27239,6928.07,95.648,552.263,547.606,0.0
49173.0,STARLINK-3045,PAYLOAD,2022-03-07 12:00:00,15.04694814,0.0003284,69.9999,2.6928,281.9743,182.192,-0.050473,-0.00665822,0.0,0 STARLINK-3045,1 49173U 21082AV  22066.50001157 -.00665822  00000-0 -50473-1 0  9993,2 49173  69.9999   2.6928 0003284 281.9743 182.1920 15.04694814  3654,6930.58,95.7,554.721,550.169,0.0
49173.0,STARLINK-3045,PAYLOAD,2022-03-07 22:00:00,15.04110147,0.0003348,70.0003,1.6337,288.7821,271.3359,-0.051198,-0.00664948,0.0,0 STARLINK-3045,1 49173U 21082AV  22066.91667824 -.00664948  00000-0 -51198-1 0  9990,2 49173  70.0003   1.6337 0003348 288.7821 271.3359 15.04110147  3603,6932.376,95.738,556.561,551.92,0.0
49173.0,STARLINK-3045,PAYLOAD,2022-03-08 06:00:02,15.036381,0.0003388,70.0001,0.787,290.8699,273.4429,-0.051205,-0.00657217,0.0,0 STARLINK-3045,1 49173U 21082AV  22067.25002315 -.00657217  00000-0 -51205-1 0  9996,2 49173  70.0001   0.7870 0003388 290.8699 273.4429 15.03638100 27435,6933.826,95.768,558.0409999999998,553.342,0.0
49173.0,STARLINK-3045,PAYLOAD,2022-03-08 14:00:01,15.03173935,0.0003188,70.0,359.9411,282.0939,285.7248,-0.052287,-0.00662471,0.0,0 STARLINK-3045,1 49173U 21082AV  22067.58334491 -.00662471  00000-0 -52287-1 0  9994,2 49173  70.0000 359.9411 0003188 282.0939 285.7248 15.03173935  3622,6935.254,95.797,559.33,554.908,0.0
